$$SOE
2459580.500000000, A.D. 2022-Jan-01 00:00:00.0000, -1.382089252646746E+08, -7.005162414946616E+08, -1.771693713480026E+07,
2459587.500000000, A.D. 2022-Jan-08 00:00:00.0000, -1.296555787203824E+08, -7.013270267811275E+08, -1.741873955158642E+07,
2459594.500000000, A.D. 2022-Jan-15 00:00:00.0000, -1.210849243805711E+08, -7.020440159265579E+08, -1.711821167789191E+07,
2459601.500000000, A.D. 2022-Jan-22 00:00:00.0000, -1.124980490122134E+08, -7.026667941367142E+08, -1.681538629269269E+07,
2459608.500000000, A.D. 2022-Jan-29 00:00:00.0000, -1.038960490469517E+08, -7.031949576988597E+08, -1.651029668790680E+07,
2459615.500000000, A.D. 2022-Feb-05 00:00:00.0000, -9.528003261835404E+07, -7.036281149246581E+08, -1.620297651928431E+07,
2459622.500000000, A.D. 2022-Feb-12 00:00:00.0000, -8.665111941800988E+07, -7.039658881597703E+08, -1.589345994205707E+07,
2459629.500000000, A.D. 2022-Feb-19 00:00:00.0000, -7.801043969526270E+07, -7.042079144911718E+08, -1.558178171634120E+07,
2459636.500000000, A.D. 2022-Feb-26 00:00:00.0000, -6.935913371199331E+07, -7.043538458750392E+08, -1.526797722125989E+07,
2459643.500000000, A.D. 2022-Mar-05 00:00:00.0000, -6.069835149319825E+07, -7.044033493018037E+08, -1.495208244305068E+07,
2459650.500000000, A.D. 2022-Mar-12 00:00:00.0000, -5.202925265152911E+07, -7.043561070637506E+08, -1.463413396315533E+07,
2459657.500000000, A.D. 2022-Mar-19 00:00:00.0000, -4.335300621469893E+07, -7.042118170967258E+08, -1.431416895082453E+07,
2459664.500000000, A.D. 2022-Mar-26 00:00:00.0000, -3.467079043332651E+07, -7.039701934015045E+08, -1.399222516306528E+07,
2459671.500000000, A.D. 2022-Apr-02 00:00:00.0000, -2.598379250144054E+07, -7.036309666002730E+08, -1.366834096297571E+07,
2459678.500000000, A.D. 2022-Apr-09 00:00:00.0000, -1.729320791768553E+07, -7.031938846229898E+08, -1.334255538123387E+07,
2459685.500000000, A.D. 2022-Apr-16 00:00:00.0000, -8.600239130266493E+06, -7.026587128690794E+08, -1.301490820020837E+07,
2459692.500000000, A.D. 2022-Apr-23 00:00:00.0000, 9.390526530205998E+04, -7.020252327595497E+08, -1.268543985580286E+07,
2459699.500000000, A.D. 2022-Apr-30 00:00:00.0000, 8.788008905454887E+06, -7.012932409239132E+08, -1.235419116906300E+07,
2459706.500000000, A.D. 2022-May-07 00:00:00.0000, 1.748084667782607E+07, -7.004625509947788E+08, -1.202120334984609E+07,
2459713.500000000, A.D. 2022-May-14 00:00:00.0000, 2.617118577013333E+07, -6.995329949717863E+08, -1.168651815177214E+07,
2459720.500000000, A.D. 2022-May-21 00:00:00.0000, 3.485778671763559E+07, -6.985044233961836E+08, -1.135017793016475E+07,
2459727.500000000, A.D. 2022-May-28 00:00:00.0000, 4.353940397023025E+07, -6.973767052947381E+08, -1.101222563739705E+07,
2459734.500000000, A.D. 2022-Jun-04 00:00:00.0000, 5.221478625610414E+07, -6.961497282055815E+08, -1.067270480659398E+07,
2459741.500000000, A.D. 2022-Jun-11 00:00:00.0000, 6.088267688639614E+07, -6.948233982834258E+08, -1.033165953673595E+07,
2459748.500000000, A.D. 2022-Jun-18 00:00:00.0000, 6.954181403938098E+07, -6.933976404703212E+08, -9.989134481559515E+06,
2459755.500000000, A.D. 2022-Jun-25 00:00:00.0000, 7.819093105349900E+07, -6.918723987645073E+08, -9.645174847589046E+06,
2459762.500000000, A.D. 2022-Jul-02 00:00:00.0000, 8.682875686321098E+07, -6.902476366525078E+08, -9.299826418855816E+06,
2459769.500000000, A.D. 2022-Jul-09 00:00:00.0000, 9.545401696789522E+07, -6.885233375270147E+08, -8.953135629506916E+06,
2459776.500000000, A.D. 2022-Jul-16 00:00:00.0000, 1.040654348784730E+08, -6.866995040073923E+08, -8.605149590585917E+06,
2459783.500000000, A.D. 2022-Jul-23 00:00:00.0000, 1.126617318431145E+08, -6.847761560846487E+08, -8.255915862788230E+06,
2459790.500000000, A.D. 2022-Jul-30 00:00:00.0000, 1.212416249359590E+08, -6.827533314441721E+08, -7.905482256793022E+06,
2459797.500000000, A.D. 2022-Aug-06 00:00:00.0000, 1.298038271076737E+08, -6.806310873177338E+08, -7.553896938102573E+06,
2459804.500000000, A.D. 2022-Aug-13 00:00:00.0000, 1.383470483746282E+08, -6.784095011103212E+08, -7.201208535547197E+06,
2459811.500000000, A.D. 2022-Aug-20 00:00:00.0000, 1.468699965771101E+08, -6.760886703051733E+08, -6.847466150390834E+06,
2459818.500000000, A.D. 2022-Aug-27 00:00:00.0000, 1.553713777744432E+08, -6.736687123734026E+08, -6.492719331433952E+06,
2459825.500000000, A.D. 2022-Sep-03 00:00:00.0000, 1.638498965246426E+08, -6.711497647985218E+08, -6.137018047707736E+06,
2459832.500000000, A.D. 2022-Sep-10 00:00:00.0000, 1.723042561384218E+08, -6.685319851916747E+08, -5.780412664951265E+06,
2459839.500000000, A.D. 2022-Sep-17 00:00:00.0000, 1.807331589367074E+08, -6.658155514990164E+08, -5.422953928673267E+06,
2459846.500000000, A.D. 2022-Sep-24 00:00:00.0000, 1.891353065718988E+08, -6.630006623518419E+08, -5.064692963542968E+06,
2459853.500000000, A.D. 2022-Oct-01 00:00:00.0000, 1.975094006526945E+08, -6.600875375815891E+08, -4.705681313064396E+06,
2459860.500000000, A.D. 2022-Oct-08 00:00:00.0000, 2.058541440796112E+08, -6.570764183776150E+08, -4.345971014411330E+06,
2459867.500000000, A.D. 2022-Oct-15 00:00:00.0000, 2.141682421590356E+08, -6.539675658885832E+08, -3.985614525172770E+06,
2459874.500000000, A.D. 2022-Oct-22 00:00:00.0000, 2.224504013137595E+08, -6.507612599511298E+08, -3.624664439784914E+06,
2459881.500000000, A.D. 2022-Oct-29 00:00:00.0000, 2.306993278875039E+08, -6.474578005388008E+08, -3.263173437016040E+06,
2459888.500000000, A.D. 2022-Nov-05 00:00:00.0000, 2.389137291426742E+08, -6.440575091899602E+08, -2.901194427355886E+06,
2459895.500000000, A.D. 2022-Nov-12 00:00:00.0000, 2.470923144863430E+08, -6.405607291475693E+08, -2.538780616755366E+06,
2459902.500000000, A.D. 2022-Nov-19 00:00:00.0000, 2.552337962047369E+08, -6.369678251649998E+08, -2.175985498893827E+06,
2459909.500000000, A.D. 2022-Nov-26 00:00:00.0000, 2.633368899680283E+08, -6.332791833751690E+08, -1.812862832636625E+06,
2459916.500000000, A.D. 2022-Dec-03 00:00:00.0000, 2.714003152709726E+08, -6.294952112344050E+08, -1.449466620954901E+06,
2459923.500000000, A.D. 2022-Dec-10 00:00:00.0000, 2.794227958543832E+08, -6.256163375221260E+08, -1.085851094014049E+06,
2459930.500000000, A.D. 2022-Dec-17 00:00:00.0000, 2.874030601316440E+08, -6.216430124209599E+08, -7.220707007739246E+05,
2459937.500000000, A.D. 2022-Dec-24 00:00:00.0000, 2.953398417292672E+08, -6.175757077427218E+08, -3.581801245273352E+05,
2459944.500000000, A.D. 2022-Dec-31 00:00:00.0000, 3.032318804989483E+08, -6.134149171924260E+08, 5.765653619647026E+03,
2459951.500000000, A.D. 2023-Jan-07 00:00:00.0000, 3.110779241237614E+08, -6.091611557079526E+08, 3.697113107592463E+05,
2459958.500000000, A.D. 2023-Jan-14 00:00:00.0000, 3.188767283512688E+08, -6.048149573787699E+08, 7.336013787790537E+05,
2459965.500000000, A.D. 2023-Jan-21 00:00:00.0000, 3.266270552083789E+08, -6.003768751163483E+08, 1.097380481460333E+06,
2459972.500000000, A.D. 2023-Jan-28 00:00:00.0000, 3.343276728656520E+08, -5.958474822716490E+08, 1.460993259700388E+06,
2459979.500000000, A.D. 2023-Feb-04 00:00:00.0000, 3.419773569423442E+08, -5.912273731721476E+08, 1.824384251492769E+06,
2459986.500000000, A.D. 2023-Feb-11 00:00:00.0000, 3.495748914566407E+08, -5.865171627722316E+08, 2.187497875625908E+06,
2459993.500000000, A.D. 2023-Feb-18 00:00:00.0000, 3.571190693574173E+08, -5.817174862401657E+08, 2.550278457746655E+06,
2460000.500000000, A.D. 2023-Feb-25 00:00:00.0000, 3.646086928999631E+08, -5.768289986432755E+08, 2.912670261596203E+06,
2460007.500000000, A.D. 2023-Mar-04 00:00:00.0000, 3.720425739675464E+08, -5.718523747123071E+08, 3.274617517722070E+06,
2460014.500000000, A.D. 2023-Mar-11 00:00:00.0000, 3.794195343671678E+08, -5.667883086841928E+08, 3.636064447249740E+06,
2460021.500000000, A.D. 2023-Mar-18 00:00:00.0000, 3.867384061463258E+08, -5.616375142723665E+08, 3.996955272526324E+06,
2460028.500000000, A.D. 2023-Mar-25 00:00:00.0000, 3.939980321339678E+08, -5.564007248115258E+08, 4.357234192322373E+06,
2460035.500000000, A.D. 2023-Apr-01 00:00:00.0000, 4.011972671301304E+08, -5.510786931832802E+08, 4.716845315007567E+06,
2460042.500000000, A.D. 2023-Apr-08 00:00:00.0000, 4.083349791288469E+08, -5.456721902978318E+08, 5.075732706469446E+06,
2460049.500000000, A.D. 2023-Apr-15 00:00:00.0000, 4.154100482369822E+08, -5.401820032380382E+08, 5.433840676911741E+06,
2460056.500000000, A.D. 2023-Apr-22 00:00:00.0000, 4.224213650976313E+08, -5.346089361176200E+08, 5.791113891247183E+06,
2460063.500000000, A.D. 2023-Apr-29 00:00:00.0000, 4.293678315528662E+08, -5.289538114004098E+08, 6.147497236320555E+06,
2460070.500000000, A.D. 2023-May-06 00:00:00.0000, 4.362483617855198E+08, -5.232174698996116E+08, 6.502935751937360E+06,
2460077.500000000, A.D. 2023-May-13 00:00:00.0000, 4.430618829630336E+08, -5.174007703508234E+08, 6.857374642167062E+06,
2460084.500000000, A.D. 2023-May-20 00:00:00.0000, 4.498073356172376E+08, -5.115045890500836E+08, 7.210759305126876E+06,
2460091.500000000, A.D. 2023-May-27 00:00:00.0000, 4.564836739532619E+08, -5.055298195865355E+08, 7.563035360846996E+06,
2460098.500000000, A.D. 2023-Jun-03 00:00:00.0000, 4.630898661448643E+08, -4.994773726438978E+08, 7.914148673776418E+06,
2460105.500000000, A.D. 2023-Jun-10 00:00:00.0000, 4.696248946396272E+08, -4.933481758846730E+08, 8.264045366318464E+06,
2460112.500000000, A.D. 2023-Jun-17 00:00:00.0000, 4.760877565627416E+08, -4.871431739773083E+08, 8.612671810013533E+06,
2460119.500000000, A.D. 2023-Jun-24 00:00:00.0000, 4.824774645391513E+08, -4.808633287107868E+08, 8.959974569285750E+06,
2460126.500000000, A.D. 2023-Jul-01 00:00:00.0000, 4.887930481871772E+08, -4.745096183688027E+08, 9.305900341997921E+06,
2460133.500000000, A.D. 2023-Jul-08 00:00:00.0000, 4.950335546096296E+08, -4.680830355420212E+08, 9.650396117398381E+06,
2460140.500000000, A.D. 2023-Jul-15 00:00:00.0000, 5.011980466052731E+08, -4.615845862087513E+08, 9.993409437192053E+06,
$$EOE